{"type":"FeatureCollection","features":[{"type":"Feature","id":11305197,"geometry":{"type":"LineString","coordinates":[[-105.46903761728626,40.17277681535495],[-105.46913734631151,40.172796231350468],[-105.46921979133661,40.172846891351426],[-105.46931714036694,40.17291298635341],[-105.46939601238827,40.172939425351316],[-105.46952156041702,40.172938916342353],[-105.46965559544834,40.172942967333356],[-105.46977480147564,40.172942483324825],[-105.46990579150636,40.172947718316223],[-105.47002267053355,40.172950397308291],[-105.47021434657965,40.172967638296953],[-105.4703660916166,40.172985040288545],[-105.4705328136581,40.173011391280205],[-105.47068883369482,40.1730185052701],[-105.4707986837207,40.173023825263023],[-105.47095065675551,40.173023207252164],[-105.47115719980833,40.173067414243391],[-105.47125775383789,40.173121061243485],[-105.47135406586212,40.17313868823895],[-105.47147291988941,40.173138204230462],[-105.47207542702782,40.17313818218765],[-105.47279649919653,40.173163800139825],[-105.47309836726636,40.17316770211891],[-105.47329205630915,40.17315330610321],[-105.47346672734152,40.173089526082222],[-105.47362162237069,40.173036096063989],[-105.47387631542422,40.172994962040384],[-105.47413060247671,40.172946351015746],[-105.47431018251395,40.172913000998484],[-105.47447001554636,40.172877298982336],[-105.47461996457622,40.172839114966543],[-105.47475671960026,40.172778370948642],[-105.47488916062188,40.172705301929398],[-105.47497161263684,40.172672258919121],[-105.47508870165547,40.172604117901585],[-105.47517599266583,40.172523934884637],[-105.47521056666237,40.172429193869434]]},"properties":{"objectid":11305197,"rte_cn":"3478010399","id":"115.1B","name":"BUNCE SCHOOL SPUR","bmp":0,"emp":0.35000000000000003,"seg_length":0.35000000000000003,"gis_miles":0.33300000000000002,"symbol":"1","mvum_symbol_name":"Roads open to all Vehicles, Yearlong","jurisdiction":"FS - FOREST SERVICE","operationalmaintlevel":"2 - HIGH CLEARANCE VEHICLES","surfacetype":"NAT - NATIVE MATERIAL","system":"NFSR - NATIONAL FOREST SYSTEM ROAD","seasonal":"yearlong","passengervehicle":"open","passengervehicle_datesopen":"01/01-12/31","highclearancevehicle":"open","highclearancevehicle_datesopen":"01/01-12/31","truck":"open","truck_datesopen":"01/01-12/31","bus":"open","bus_datesopen":"01/01-12/31","motorhome":"open","motorhome_datesopen":"01/01-12/31","fourwd_gt50inches":"open","fourwd_gt50_datesopen":"01/01-12/31","twowd_gt50inches":"open","twowd_gt50_datesopen":"01/01-12/31","tracked_ohv_gt50inches":"open","tracked_ohv_gt50_datesopen":"01/01-12/31","other_ohv_gt50inches":"open","other_ohv_gt50_datesopen":"01/01-12/31","atv":"open","atv_datesopen":"01/01-12/31","motorcycle":"open","motorcycle_datesopen":"01/01-12/31","otherwheeled_ohv":"open","otherwheeled_ohv_datesopen":"01/01-12/31","tracked_ohv_lt50inches":"open","tracked_ohv_lt50_datesopen":"01/01-12/31","other_ohv_lt50inches":"open","other_ohv_lt50_datesopen":"01/01-12/31","adminorg":"021001","securityid":"0210","districtname":"Boulder Ranger District","forestname":"Arapaho and Roosevelt National Forests","field_id":"115.1B","sbs_symbol_name":"Road, Not Maintained for Passenger Car","routestatus":"EX - EXISTING","globalid":"{7A3FD3FE-96CF-4C08-A1B8-58D1DF3429B4}","ta_symbol":6,"e_bike_class1":null,"e_bike_class1_dur":null,"e_bike_class2":null,"e_bike_class2_dur":null,"e_bike_class3":null,"e_bike_class3_dur":null,"st_length(shape)":0.0064327237044488738}},{"type":"Feature","id":11339841,"geometry":{"type":"LineString","coordinates":[[-105.47067200341111,40.170701243959499],[-105.4707206194242,40.170717533958246],[-105.4708076024496,40.170762317958093],[-105.47088868247312,40.170802620957751],[-105.47092023348574,40.170847539961549],[-105.47092508648959,40.17087004396425],[-105.47073400847245,40.171091554007603],[-105.47062253045667,40.171173092026528],[-105.47052973144741,40.17127257404649],[-105.47044161643478,40.171335998061302],[-105.47040428043876,40.171439759077906],[-105.47049700747147,40.171533982084007],[-105.47060790050558,40.171605607085745],[-105.4707195225382,40.17166371508565],[-105.47085453957459,40.171708213082013],[-105.47096565360445,40.171743709078889],[-105.47111283064471,40.171797257075625],[-105.47123307467608,40.171828301071272],[-105.47135237170504,40.171841330064552],[-105.47145959672963,40.171840893056896],[-105.47157626276129,40.171880961053972],[-105.47168923279312,40.17193005305252],[-105.47172135480979,40.17200650206054],[-105.47173104682128,40.172083134070142],[-105.47175861183518,40.17214599807668],[-105.47179883785365,40.172222414084068],[-105.47187388988121,40.172307699090211],[-105.4719415039043,40.172370489093865],[-105.4720353559302,40.172406145092026],[-105.47213795295693,40.17243275508828],[-105.47220264097341,40.172446005085447],[-105.47227103199182,40.172468250083604],[-105.4723365800112,40.172504020083778],[-105.47247548305272,40.172583458084588],[-105.47262480208983,40.172606724077085],[-105.47287369415147,40.172643727064347],[-105.47315948621585,40.17263319004266],[-105.47329628924889,40.172646866034732],[-105.47351401230051,40.172660301021097],[-105.47365694133329,40.172659716010848],[-105.47384935037395,40.172630368993232],[-105.47427204447315,40.172647647965512],[-105.47442113050617,40.172637396953562],[-105.47457011953745,40.172613091939695],[-105.4748244725871,40.172540512911823],[-105.47498567661714,40.172482641892557],[-105.47510360664242,40.172467832882198],[-105.47521056666237,40.172429193869434]]},"properties":{"objectid":11339841,"rte_cn":"3477010399","id":"115.1A","name":"BUNCE SCHOOL SPUR","bmp":0,"emp":0.36000000000000004,"seg_length":0.36000000000000004,"gis_miles":0.35100000000000003,"symbol":"1","mvum_symbol_name":"Roads open to all Vehicles, Yearlong","jurisdiction":"FS - FOREST SERVICE","operationalmaintlevel":"2 - HIGH CLEARANCE VEHICLES","surfacetype":"NAT - NATIVE MATERIAL","system":"NFSR - NATIONAL FOREST SYSTEM ROAD","seasonal":"yearlong","passengervehicle":"open","passengervehicle_datesopen":"01/01-12/31","highclearancevehicle":"open","highclearancevehicle_datesopen":"01/01-12/31","truck":"open","truck_datesopen":"01/01-12/31","bus":"open","bus_datesopen":"01/01-12/31","motorhome":"open","motorhome_datesopen":"01/01-12/31","fourwd_gt50inches":"open","fourwd_gt50_datesopen":"01/01-12/31","twowd_gt50inches":"open","twowd_gt50_datesopen":"01/01-12/31","tracked_ohv_gt50inches":"open","tracked_ohv_gt50_datesopen":"01/01-12/31","other_ohv_gt50inches":"open","other_ohv_gt50_datesopen":"01/01-12/31","atv":"open","atv_datesopen":"01/01-12/31","motorcycle":"open","motorcycle_datesopen":"01/01-12/31","otherwheeled_ohv":"open","otherwheeled_ohv_datesopen":"01/01-12/31","tracked_ohv_lt50inches":"open","tracked_ohv_lt50_datesopen":"01/01-12/31","other_ohv_lt50inches":"open","other_ohv_lt50_datesopen":"01/01-12/31","adminorg":"021001","securityid":"0210","districtname":"Boulder Ranger District","forestname":"Arapaho and Roosevelt National Forests","field_id":"115.1A","sbs_symbol_name":"Road, Not Maintained for Passenger Car","routestatus":"EX - EXISTING","globalid":"{5E68CA86-734F-454C-A6D0-72AAD637B7E3}","ta_symbol":6,"e_bike_class1":null,"e_bike_class1_dur":null,"e_bike_class2":null,"e_bike_class2_dur":null,"e_bike_class3":null,"e_bike_class3_dur":null,"st_length(shape)":0.0063803229180001428}},{"type":"Feature","id":11343493,"geometry":{"type":"LineString","coordinates":[[-105.50378241598848,40.13733091511709],[-105.50380018599006,40.137310204113049],[-105.50390202300281,40.137221561093902],[-105.50403795302215,40.137123234070984],[-105.50413372103574,40.137053687054866],[-105.50426028105205,40.136948251031683],[-105.5044147920748,40.1368426910065],[-105.50452282908751,40.136742165985304],[-105.50477409612303,40.136558331942688],[-105.5049085951287,40.136348994905028],[-105.50497679712713,40.13620643688094],[-105.50505447612538,40.136043926853553],[-105.50509727412106,40.135926615834748],[-105.5052336761333,40.135768354803794],[-105.50555959319003,40.135618274760432],[-105.50577196023366,40.135575753739623],[-105.50591437825908,40.135515537721396],[-105.50609738429725,40.135483748704132],[-105.50631783234687,40.135475633687435],[-105.50656935440394,40.135469767668759],[-105.50681097644919,40.135385276640235],[-105.50696843546432,40.13521116060565],[-105.50722883349792,40.134993822557867],[-105.50735529851815,40.134920921539084],[-105.5074729495438,40.134909684529248],[-105.50776609959463,40.13477323049004],[-105.50798280063306,40.134679312462019],[-105.50813451466036,40.134616668442852],[-105.50819538166702,40.134555956430368],[-105.50818952865859,40.134497237422842],[-105.50813337764168,40.134464111422425],[-105.50805886162493,40.134466821428063],[-105.50790743459883,40.134538720448475],[-105.50769163255219,40.134562821467028],[-105.5075318815194,40.13459499448274],[-105.50730204946711,40.134598864499559],[-105.50711897742781,40.134621119515536],[-105.50696251739339,40.134633706528348],[-105.50665709732532,40.134650359552268],[-105.50634113725327,40.134654443575258],[-105.50616220021143,40.134648018587058],[-105.50589548315408,40.134679886610286],[-105.50569180011027,40.134704220628016],[-105.50552002407267,40.134719432642306],[-105.50534958603585,40.134738507656913],[-105.50517572299685,40.134746417670364],[-105.5049767619509,40.134743757684113],[-105.50494236794339,40.134746999686982],[-105.50477509790511,40.134748164699026],[-105.50473284089477,40.134742679701311]]},"properties":{"objectid":11343493,"rte_cn":"4722010399","id":"105.0","name":"BUNCE SCHOOL","bmp":4.1100000000000003,"emp":4.6200000000000001,"seg_length":0.51000000000000001,"gis_miles":0.498,"symbol":"1","mvum_symbol_name":"Roads open to all Vehicles, Yearlong","jurisdiction":"FS - FOREST SERVICE","operationalmaintlevel":"2 - HIGH CLEARANCE VEHICLES","surfacetype":"NAT - NATIVE MATERIAL","system":"NFSR - NATIONAL FOREST SYSTEM ROAD","seasonal":"yearlong","passengervehicle":"open","passengervehicle_datesopen":"01/01-12/31","highclearancevehicle":"open","highclearancevehicle_datesopen":"01/01-12/31","truck":"open","truck_datesopen":"01/01-12/31","bus":"open","bus_datesopen":"01/01-12/31","motorhome":"open","motorhome_datesopen":"01/01-12/31","fourwd_gt50inches":"open","fourwd_gt50_datesopen":"01/01-12/31","twowd_gt50inches":"open","twowd_gt50_datesopen":"01/01-12/31","tracked_ohv_gt50inches":"open","tracked_ohv_gt50_datesopen":"01/01-12/31","other_ohv_gt50inches":"open","other_ohv_gt50_datesopen":"01/01-12/31","atv":"open","atv_datesopen":"01/01-12/31","motorcycle":"open","motorcycle_datesopen":"01/01-12/31","otherwheeled_ohv":"open","otherwheeled_ohv_datesopen":"01/01-12/31","tracked_ohv_lt50inches":"open","tracked_ohv_lt50_datesopen":"01/01-12/31","other_ohv_lt50inches":"open","other_ohv_lt50_datesopen":"01/01-12/31","adminorg":"021001","securityid":"0210","districtname":"Boulder Ranger District","forestname":"Arapaho and Roosevelt National Forests","field_id":"105.0","sbs_symbol_name":"Road, Not Maintained for Passenger Car","routestatus":"EX - EXISTING","globalid":"{E45AF771-44D5-4663-94D4-812543F63833}","ta_symbol":6,"e_bike_class1":null,"e_bike_class1_dur":null,"e_bike_class2":null,"e_bike_class2_dur":null,"e_bike_class3":null,"e_bike_class3_dur":null,"st_length(shape)":0.0090254269052865346}},{"type":"Feature","id":11343494,"geometry":{"type":"LineString","coordinates":[[-105.50365949060303,40.134366139726779],[-105.50388730565564,40.134368610710951],[-105.50437643976761,40.134366481675954],[-105.50466965583044,40.134329446650163],[-105.50486954386932,40.134271364628148],[-105.50508346091227,40.134220373606077],[-105.50525627694233,40.134140364583047],[-105.50528660494857,40.134134514580126],[-105.50551705098393,40.13398910754421],[-105.5056825140189,40.133963886529024],[-105.50591522106876,40.133934265508579],[-105.50632362714897,40.133822349464467],[-105.50642027716944,40.133807722455678],[-105.50660775320193,40.133720272430551],[-105.5067748712307,40.133640876408016],[-105.50690927225025,40.133547321385919],[-105.50709017827921,40.133442834359016],[-105.50722942330292,40.133374287339898],[-105.50733145431894,40.133313055324415],[-105.50742395632939,40.133223257305779],[-105.50743737332341,40.133148109294716],[-105.50748768331985,40.13302274127426],[-105.50754760332319,40.132936662258409],[-105.50765879133876,40.132853934239378],[-105.50781658836544,40.132774578217472],[-105.507946515387,40.132706069199074],[-105.50820173442951,40.132572650163006],[-105.50841508546328,40.132446566130895],[-105.50864240650021,40.13232042009777],[-105.50889735853839,40.132151243056867],[-105.5090806275668,40.132038081028654],[-105.50915468757756,40.131986506016453],[-105.50918965858301,40.131964612011032]]},"properties":{"objectid":11343494,"rte_cn":"4722010399","id":"105.0","name":"BUNCE SCHOOL","bmp":4.7800000000000002,"emp":5.1299999999999999,"seg_length":0.35000000000000003,"gis_miles":0.34500000000000003,"symbol":"1","mvum_symbol_name":"Roads open to all Vehicles, Yearlong","jurisdiction":"FS - FOREST SERVICE","operationalmaintlevel":"2 - HIGH CLEARANCE VEHICLES","surfacetype":"NAT - NATIVE MATERIAL","system":"NFSR - NATIONAL FOREST SYSTEM ROAD","seasonal":"yearlong","passengervehicle":"open","passengervehicle_datesopen":"01/01-12/31","highclearancevehicle":"open","highclearancevehicle_datesopen":"01/01-12/31","truck":"open","truck_datesopen":"01/01-12/31","bus":"open","bus_datesopen":"01/01-12/31","motorhome":"open","motorhome_datesopen":"01/01-12/31","fourwd_gt50inches":"open","fourwd_gt50_datesopen":"01/01-12/31","twowd_gt50inches":"open","twowd_gt50_datesopen":"01/01-12/31","tracked_ohv_gt50inches":"open","tracked_ohv_gt50_datesopen":"01/01-12/31","other_ohv_gt50inches":"open","other_ohv_gt50_datesopen":"01/01-12/31","atv":"open","atv_datesopen":"01/01-12/31","motorcycle":"open","motorcycle_datesopen":"01/01-12/31","otherwheeled_ohv":"open","otherwheeled_ohv_datesopen":"01/01-12/31","tracked_ohv_lt50inches":"open","tracked_ohv_lt50_datesopen":"01/01-12/31","other_ohv_lt50inches":"open","other_ohv_lt50_datesopen":"01/01-12/31","adminorg":"021001","securityid":"0210","districtname":"Boulder Ranger District","forestname":"Arapaho and Roosevelt National Forests","field_id":"105.0","sbs_symbol_name":"Road, Not Maintained for Passenger Car","routestatus":"EX - EXISTING","globalid":"{4DB593CF-1074-4E21-8A7B-67B31E8C15B5}","ta_symbol":6,"e_bike_class1":null,"e_bike_class1_dur":null,"e_bike_class2":null,"e_bike_class2_dur":null,"e_bike_class3":null,"e_bike_class3_dur":null,"st_length(shape)":0.0062522995894000906}},{"type":"Feature","id":11343495,"geometry":{"type":"LineString","coordinates":[[-105.48511971793531,40.147546850817179],[-105.48528042594792,40.147345230778591],[-105.4853252049506,40.147282085766889],[-105.48539569695369,40.147173676747343],[-105.48547564496005,40.147074236728244],[-105.48552887895922,40.146965898709915],[-105.48555623095811,40.146904433699667],[-105.48552667993627,40.146779665684988],[-105.48549607291594,40.146669187672273],[-105.48545541889141,40.146543494658268],[-105.485459830883,40.146465287647423],[-105.48551646888724,40.146392583633634],[-105.48560041189732,40.146315951617346],[-105.4857191069146,40.146233450597826],[-105.48584518593242,40.146141385576463],[-105.48601640295615,40.146012064546888],[-105.48607113596017,40.145941043533462],[-105.48606966195278,40.145882487525661],[-105.48606880795204,40.145877986525143],[-105.48606698295058,40.145868984524043],[-105.48599010792529,40.145806240521061],[-105.48584689489466,40.145824860533743],[-105.48565788585734,40.145875206553896],[-105.4855021108298,40.145943430574164],[-105.4853404658009,40.146011679594864],[-105.48515923676588,40.146066496615092],[-105.4849681777292,40.146125858636644],[-105.48453517564589,40.146259707685417],[-105.48447710063016,40.146239714686814],[-105.48433343159358,40.146209944693048],[-105.48422187756366,40.146174348696142],[-105.48413970553543,40.146096869691576],[-105.48406217150307,40.145975714680738],[-105.48402908847969,40.14584488366549],[-105.48404088947275,40.145765112653912],[-105.4841019354817,40.145723126643951],[-105.48410157248121,40.145719551643502],[-105.48421852150042,40.145655995626647],[-105.48435147952598,40.145614896611626],[-105.48495645663526,40.145369107535643],[-105.48536032071422,40.145254796491564],[-105.48576022177488,40.144996348428371],[-105.48627613886867,40.144791469364137],[-105.48659753192383,40.144636957320529],[-105.4869378459877,40.144518402280433],[-105.48742068407442,40.144318252219193],[-105.48773806113624,40.14422673018435],[-105.48805578120196,40.144166829153683],[-105.48846885127818,40.144011926103552],[-105.48870950833333,40.144010911086326],[-105.48881506635585,40.143996951076971],[-105.48904701039866,40.143910381048826],[-105.48929492443538,40.143742658008648],[-105.48946343845715,40.143602297977814],[-105.48959377147754,40.143522978957868]]},"properties":{"objectid":11343495,"rte_cn":"4722010399","id":"105.0","name":"BUNCE SCHOOL","bmp":2.5899999999999999,"emp":3.2000000000000002,"seg_length":0.60999999999999999,"gis_miles":0.60199999999999998,"symbol":"1","mvum_symbol_name":"Roads open to all Vehicles, Yearlong","jurisdiction":"FS - FOREST SERVICE","operationalmaintlevel":"2 - HIGH CLEARANCE VEHICLES","surfacetype":"NAT - NATIVE MATERIAL","system":"NFSR - NATIONAL FOREST SYSTEM ROAD","seasonal":"yearlong","passengervehicle":"open","passengervehicle_datesopen":"01/01-12/31","highclearancevehicle":"open","highclearancevehicle_datesopen":"01/01-12/31","truck":"open","truck_datesopen":"01/01-12/31","bus":"open","bus_datesopen":"01/01-12/31","motorhome":"open","motorhome_datesopen":"01/01-12/31","fourwd_gt50inches":"open","fourwd_gt50_datesopen":"01/01-12/31","twowd_gt50inches":"open","twowd_gt50_datesopen":"01/01-12/31","tracked_ohv_gt50inches":"open","tracked_ohv_gt50_datesopen":"01/01-12/31","other_ohv_gt50inches":"open","other_ohv_gt50_datesopen":"01/01-12/31","atv":"open","atv_datesopen":"01/01-12/31","motorcycle":"open","motorcycle_datesopen":"01/01-12/31","otherwheeled_ohv":"open","otherwheeled_ohv_datesopen":"01/01-12/31","tracked_ohv_lt50inches":"open","tracked_ohv_lt50_datesopen":"01/01-12/31","other_ohv_lt50inches":"open","other_ohv_lt50_datesopen":"01/01-12/31","adminorg":"021001","securityid":"0210","districtname":"Boulder Ranger District","forestname":"Arapaho and Roosevelt National Forests","field_id":"105.0","sbs_symbol_name":"Road, Not Maintained for Passenger Car","routestatus":"EX - EXISTING","globalid":"{C5B49E74-DF13-4445-87C2-0A215ABC264A}","ta_symbol":6,"e_bike_class1":null,"e_bike_class1_dur":null,"e_bike_class2":null,"e_bike_class2_dur":null,"e_bike_class3":null,"e_bike_class3_dur":null,"st_length(shape)":0.010595784564615005}},{"type":"Feature","id":11344484,"geometry":{"type":"LineString","coordinates":[[-105.47028114435003,40.170939443019343],[-105.47038788836809,40.170885652004472],[-105.47052867139169,40.170813003984748],[-105.47064149640663,40.170722450964547],[-105.47067200341111,40.170701243959499],[-105.47075218342277,40.170645419946325],[-105.47083074042826,40.170541491926706],[-105.47090387942816,40.170401546902674],[-105.47096425841968,40.170216606873502],[-105.4710296424177,40.170076062849979],[-105.47109133440586,40.169860214816573],[-105.47112490138038,40.169585288777149],[-105.47123795639331,40.169477525754608],[-105.47132472040664,40.169422845741074],[-105.47143958042692,40.169372285726141],[-105.47169692748048,40.169326189701636],[-105.47184378751525,40.169334600692338],[-105.47224679659674,40.169242862651394],[-105.47255350566434,40.169219087626338],[-105.47294623374235,40.169118379584887],[-105.47353367386302,40.169000116527243],[-105.4740214839622,40.168893250478192],[-105.47416173499489,40.16889718046874],[-105.47427856902547,40.168928235464634],[-105.4744060200552,40.168932218456106],[-105.47455553308572,40.168900072441133],[-105.47474102011893,40.168822731417599],[-105.47497424715608,40.168686632382688],[-105.47506595316671,40.168600305364592],[-105.47517843518602,40.168546147349289],[-105.47537145121724,40.168437241320895],[-105.47546723522825,40.168346302301885],[-105.47557021723949,40.168243622280755],[-105.47564068524356,40.168143237262257],[-105.47565235624293,40.168115980257753],[-105.47568026824665,40.168093612252726],[-105.47578213726075,40.168016613235139],[-105.47583201026545,40.167960639224042],[-105.47588202427062,40.167908088213416],[-105.47594964527758,40.167837356199101],[-105.47613264430389,40.167707138168602],[-105.47628252031849,40.167542729135789],[-105.47646819234292,40.167391867102289],[-105.47673682138112,40.167197327057032],[-105.47696853339804,40.166896447000092],[-105.47701620939678,40.166795253983103],[-105.47707847839735,40.166681838963434],[-105.47727536641736,40.166472997921346],[-105.47734819442834,40.166425217909733],[-105.47738010843314,40.166404273904625],[-105.47761639847337,40.166288248872213],[-105.47809396155999,40.166097077812566],[-105.47847671362217,40.165883773756683],[-105.47872479166598,40.16577463472435],[-105.47879662367376,40.165702261709541],[-105.47899486570934,40.165620356684421],[-105.47910670972574,40.165543402666117],[-105.4794967137892,40.165327002609288],[-105.47961611580611,40.16523938558899],[-105.47974165582291,40.165139761566707],[-105.4798468358383,40.165067249549438],[-105.47985364683986,40.165067221548959],[-105.47985539584002,40.165065412548628],[-105.47986180384061,40.165058178547191],[-105.47995610585028,40.16495859252705],[-105.48007153185442,40.164773509493997],[-105.48014017385114,40.164615468467822],[-105.48019933684623,40.164462152442965],[-105.48024283584093,40.164335838422893],[-105.48031508284387,40.164222920402608],[-105.48040632085068,40.164105328380252],[-105.48050920785847,40.163974354355332],[-105.48063812086954,40.163820657325523],[-105.48075635788031,40.163685024298857],[-105.48084976288651,40.163558503275226],[-105.4809598858932,40.163404884246717],[-105.48108582990311,40.163246695216451],[-105.48121874291721,40.163111000188756],[-105.48134222892865,40.162970840161123],[-105.48150156194886,40.162835035131522],[-105.4816588439697,40.162708248103293],[-105.48180463998622,40.162567994074067],[-105.4819453320027,40.162436771046451],[-105.48204112500619,40.162283211018966],[-105.48222686403625,40.162178827991717],[-105.48236823705449,40.16206111596582],[-105.4824713830629,40.161934552941496],[-105.48259774707607,40.161803388914819],[-105.48281453711219,40.161689865884163],[-105.48298987613877,40.16157651585646],[-105.48313285915687,40.161454291829855],[-105.48322439916096,40.161314262804503],[-105.48333637017575,40.161223699784401],[-105.48342615818169,40.161101696761598],[-105.48356737819935,40.160979478735115],[-105.48373371522061,40.160839136704404],[-105.48389134124147,40.160712345676139],[-105.48402822526037,40.160608163652434],[-105.48418809128395,40.160499381626401],[-105.48431619930135,40.160399741603904],[-105.48442031031651,40.16032722958672],[-105.48449737132275,40.160232307568506],[-105.48463064534133,40.160132645545609],[-105.48475435435878,40.160042032524629],[-105.48486018337162,40.159946989504334],[-105.48486226437154,40.159942476503545],[-105.4848660223724,40.159942460503295],[-105.48498817239501,40.159896901488487],[-105.48499180439563,40.159895667488094]]},"properties":{"objectid":11344484,"rte_cn":"4722010399","id":"105.0","name":"BUNCE SCHOOL","bmp":0.29999999999999999,"emp":1.45,"seg_length":1.1499999999999999,"gis_miles":1.1539999999999999,"symbol":"1","mvum_symbol_name":"Roads open to all Vehicles, Yearlong","jurisdiction":"FS - FOREST SERVICE","operationalmaintlevel":"2 - HIGH CLEARANCE VEHICLES","surfacetype":"NAT - NATIVE MATERIAL","system":"NFSR - NATIONAL FOREST SYSTEM ROAD","seasonal":"yearlong","passengervehicle":"open","passengervehicle_datesopen":"01/01-12/31","highclearancevehicle":"open","highclearancevehicle_datesopen":"01/01-12/31","truck":"open","truck_datesopen":"01/01-12/31","bus":"open","bus_datesopen":"01/01-12/31","motorhome":"open","motorhome_datesopen":"01/01-12/31","fourwd_gt50inches":"open","fourwd_gt50_datesopen":"01/01-12/31","twowd_gt50inches":"open","twowd_gt50_datesopen":"01/01-12/31","tracked_ohv_gt50inches":"open","tracked_ohv_gt50_datesopen":"01/01-12/31","other_ohv_gt50inches":"open","other_ohv_gt50_datesopen":"01/01-12/31","atv":"open","atv_datesopen":"01/01-12/31","motorcycle":"open","motorcycle_datesopen":"01/01-12/31","otherwheeled_ohv":"open","otherwheeled_ohv_datesopen":"01/01-12/31","tracked_ohv_lt50inches":"open","tracked_ohv_lt50_datesopen":"01/01-12/31","other_ohv_lt50inches":"open","other_ohv_lt50_datesopen":"01/01-12/31","adminorg":"021001","securityid":"0210","districtname":"Boulder Ranger District","forestname":"Arapaho and Roosevelt National Forests","field_id":"105.0","sbs_symbol_name":"Road, Not Maintained for Passenger Car","routestatus":"EX - EXISTING","globalid":"{F2937C26-AA75-4868-9229-99A7700CBA53}","ta_symbol":6,"e_bike_class1":null,"e_bike_class1_dur":null,"e_bike_class2":null,"e_bike_class2_dur":null,"e_bike_class3":null,"e_bike_class3_dur":null,"st_length(shape)":0.019332640567242758}},{"type":"Feature","id":11344485,"geometry":{"type":"LineString","coordinates":[[-105.48545871800911,40.155803938904299],[-105.48545406000757,40.155800129904158],[-105.48537329998146,40.155737401901455],[-105.48525840394811,40.155679321901786],[-105.48515256991514,40.155607689899639],[-105.48513744491004,40.155594238898935],[-105.48511134690355,40.155589842900177],[-105.48509782290206,40.155603323902959],[-105.48501974287818,40.155554188901895],[-105.48495277385415,40.155482392897014],[-105.48486346382442,40.155406186893082],[-105.4848438128172,40.155383744891466],[-105.48481059580581,40.155352350889586],[-105.48473989177926,40.155267056883162],[-105.48463159373978,40.155145881874539],[-105.48456149770578,40.154997517859513],[-105.48447550867138,40.154876249849323],[-105.48447709266418,40.154813383840747]]},"properties":{"objectid":11344485,"rte_cn":"4722010399","id":"105.0","name":"BUNCE SCHOOL","bmp":1.9199999999999999,"emp":2.0099999999999998,"seg_length":0.090000000000000011,"gis_miles":0.091999999999999998,"symbol":"1","mvum_symbol_name":"Roads open to all Vehicles, Yearlong","jurisdiction":"FS - FOREST SERVICE","operationalmaintlevel":"2 - HIGH CLEARANCE VEHICLES","surfacetype":"NAT - NATIVE MATERIAL","system":"NFSR - NATIONAL FOREST SYSTEM ROAD","seasonal":"yearlong","passengervehicle":"open","passengervehicle_datesopen":"01/01-12/31","highclearancevehicle":"open","highclearancevehicle_datesopen":"01/01-12/31","truck":"open","truck_datesopen":"01/01-12/31","bus":"open","bus_datesopen":"01/01-12/31","motorhome":"open","motorhome_datesopen":"01/01-12/31","fourwd_gt50inches":"open","fourwd_gt50_datesopen":"01/01-12/31","twowd_gt50inches":"open","twowd_gt50_datesopen":"01/01-12/31","tracked_ohv_gt50inches":"open","tracked_ohv_gt50_datesopen":"01/01-12/31","other_ohv_gt50inches":"open","other_ohv_gt50_datesopen":"01/01-12/31","atv":"open","atv_datesopen":"01/01-12/31","motorcycle":"open","motorcycle_datesopen":"01/01-12/31","otherwheeled_ohv":"open","otherwheeled_ohv_datesopen":"01/01-12/31","tracked_ohv_lt50inches":"open","tracked_ohv_lt50_datesopen":"01/01-12/31","other_ohv_lt50inches":"open","other_ohv_lt50_datesopen":"01/01-12/31","adminorg":"021001","securityid":"0210","districtname":"Boulder Ranger District","forestname":"Arapaho and Roosevelt National Forests","field_id":"105.0","sbs_symbol_name":"Road, Not Maintained for Passenger Car","routestatus":"EX - EXISTING","globalid":"{61C2D7F6-D8BE-4ACC-ADB9-EEBFF3073384}","ta_symbol":6,"e_bike_class1":null,"e_bike_class1_dur":null,"e_bike_class2":null,"e_bike_class2_dur":null,"e_bike_class3":null,"e_bike_class3_dur":null,"st_length(shape)":0.0014629316300999713}},{"type":"Feature","id":11344488,"geometry":{"type":"LineString","coordinates":[[-105.48512300213122,40.149165053034714],[-105.4851511031296,40.149098233023686],[-105.48523570714029,40.149025803007959],[-105.48527469413948,40.148944553994234],[-105.48533333114585,40.148885745982156],[-105.48540278015685,40.148844911971786],[-105.48541700615849,40.148831337968915],[-105.48542135015948,40.148831319968608],[-105.48542941916078,40.14882678196745],[-105.48544590916349,40.148817702965012],[-105.48554452618008,40.148767736951328],[-105.48569009219933,40.148650002925137],[-105.48574683920313,40.148573183910756],[-105.48573742418465,40.148438080893236],[-105.48566197015762,40.148357638887767]]},"properties":{"objectid":11344488,"rte_cn":"4722010399","id":"105.0","name":"BUNCE SCHOOL","bmp":2.4500000000000002,"emp":2.52,"seg_length":0.070000000000000007,"gis_miles":0.072000000000000008,"symbol":"1","mvum_symbol_name":"Roads open to all Vehicles, Yearlong","jurisdiction":"FS - FOREST SERVICE","operationalmaintlevel":"2 - HIGH CLEARANCE VEHICLES","surfacetype":"NAT - NATIVE MATERIAL","system":"NFSR - NATIONAL FOREST SYSTEM ROAD","seasonal":"yearlong","passengervehicle":"open","passengervehicle_datesopen":"01/01-12/31","highclearancevehicle":"open","highclearancevehicle_datesopen":"01/01-12/31","truck":"open","truck_datesopen":"01/01-12/31","bus":"open","bus_datesopen":"01/01-12/31","motorhome":"open","motorhome_datesopen":"01/01-12/31","fourwd_gt50inches":"open","fourwd_gt50_datesopen":"01/01-12/31","twowd_gt50inches":"open","twowd_gt50_datesopen":"01/01-12/31","tracked_ohv_gt50inches":"open","tracked_ohv_gt50_datesopen":"01/01-12/31","other_ohv_gt50inches":"open","other_ohv_gt50_datesopen":"01/01-12/31","atv":"open","atv_datesopen":"01/01-12/31","motorcycle":"open","motorcycle_datesopen":"01/01-12/31","otherwheeled_ohv":"open","otherwheeled_ohv_datesopen":"01/01-12/31","tracked_ohv_lt50inches":"open","tracked_ohv_lt50_datesopen":"01/01-12/31","other_ohv_lt50inches":"open","other_ohv_lt50_datesopen":"01/01-12/31","adminorg":"021001","securityid":"0210","districtname":"Boulder Ranger District","forestname":"Arapaho and Roosevelt National Forests","field_id":"105.0","sbs_symbol_name":"Road, Not Maintained for Passenger Car","routestatus":"EX - EXISTING","globalid":"{AE405E53-FF85-425E-AEB4-3076C43668B0}","ta_symbol":6,"e_bike_class1":null,"e_bike_class1_dur":null,"e_bike_class2":null,"e_bike_class2_dur":null,"e_bike_class3":null,"e_bike_class3_dur":null,"st_length(shape)":0.0011286786082093626}}]}