{"type":"FeatureCollection","features":[{"type":"Feature","geometry":{"type":"LineString","coordinates":[[-105.47985539584002,40.165065412548628],[-105.48018408791948,40.165098015529615],[-105.48040607597912,40.165169981523533],[-105.48041778500139,40.165331743544478],[-105.48026608398904,40.165518508580412],[-105.4801282919728,40.16564602360733],[-105.48011188500185,40.165917547645059],[-105.48002641999473,40.166021511665065],[-105.47992646898163,40.166103011683148],[-105.4798679809802,40.166202357700683],[-105.47986077000992,40.16646240173619],[-105.47982105703069,40.166709786772259],[-105.47966432302162,40.166932970813441],[-105.47958665602728,40.16712744684515],[-105.47948199701692,40.16724112986789],[-105.47934729899414,40.167308267886447],[-105.47928129399503,40.167441160909021],[-105.47930233302634,40.167660634937057],[-105.47929337904395,40.167823652959655],[-105.47936665110296,40.168172828001424],[-105.47993433526726,40.168453824998885],[-105.48011852031631,40.168509459993253],[-105.48019483934763,40.168623655003238],[-105.4801992223674,40.168779050023801],[-105.48027337339732,40.168885595032854],[-105.48036338142884,40.168975767038582],[-105.48051089547093,40.169043627037226],[-105.48066855350807,40.169051081027042],[-105.48125363159201,40.168633673929321],[-105.48153167464892,40.168576117901821],[-105.48174182569807,40.168583262887822],[-105.48208435379601,40.168743016884953],[-105.48266167195236,40.168939540870348],[-105.48276941099387,40.169078558881417],[-105.48280687901658,40.169195254894476],[-105.48275521501689,40.169296196911688],[-105.48263514200251,40.169405441934948],[-105.48257842200559,40.169538657956892],[-105.48251775103446,40.169893434008912],[-105.48245730304522,40.170097391040656],[-105.48251129310115,40.170457545085291],[-105.48247521910459,40.170554367100848],[-105.48230796107984,40.170667863127996],[-105.48222459907913,40.170820470154467],[-105.48241580815126,40.171054190172306],[-105.48257369519425,40.171109932168619],[-105.48273867724571,40.171222133171952],[-105.48287454429267,40.171352384179798],[-105.48294337533061,40.171535800199592],[-105.48308769538943,40.171748362217933],[-105.48325301347067,40.172106250254323],[-105.4832679935912,40.173075697383638],[-105.48322835059899,40.173215870405336],[-105.48314099559339,40.173335520427635],[-105.48308971660641,40.173540790458858],[-105.48309022761524,40.173612864468524],[-105.48300009562176,40.173837846505208],[-105.48274716859466,40.174094590557743],[-105.48269485261181,40.174336082593939],[-105.48276105065432,40.174561943619594],[-105.4829928997196,40.174661702616561],[-105.48314525375697,40.174681158608301],[-105.48331309179153,40.174648294591954],[-105.48350621081244,40.174454054552108],[-105.48374311486096,40.17440549452877],[-105.48388903388128,40.174296140503657],[-105.48413630792483,40.174186452471318],[-105.48457440398768,40.173873973398138],[-105.48466529300426,40.17383863538695],[-105.48477161002914,40.173842245379852],[-105.48504104311107,40.174007972383009],[-105.4852181511516,40.174007230370336],[-105.4853494761761,40.173960010354619],[-105.48544976718497,40.173843187331748],[-105.48551828919699,40.173812223322756],[-105.48562253621957,40.173800873313787],[-105.48579893926315,40.173826136304648],[-105.48593541729255,40.17381006729282],[-105.48612507933295,40.173784214275841],[-105.48633928236869,40.173672509245584],[-105.48651045839101,40.173531962214533],[-105.48657359240238,40.173505867206515],[-105.48662044740911,40.17347259119871],[-105.48665568339754,40.173310079174371],[-105.48669878737573,40.173047092135882],[-105.48686586540128,40.172941519109834],[-105.48703065740561,40.172663965060806],[-105.48722816742857,40.17247834902178],[-105.48747215746965,40.172354522987796],[-105.48757362044714,40.171975516929606],[-105.48772555246148,40.171805498895935],[-105.48785675946424,40.171578627856093],[-105.48777585943411,40.171483017848971],[-105.48755292037052,40.171380527851028],[-105.48748135334149,40.171276049842071],[-105.48690981020921,40.171267912881611],[-105.48676040917076,40.171233404887587],[-105.48653454211852,40.171230389903229],[-105.48628821006506,40.171256200924212],[-105.48608911101483,40.171218926933385],[-105.48568790390647,40.171084836943876],[-105.48552033387635,40.171154011965037],[-105.48534277185176,40.171287736995666],[-105.48516540883054,40.171449660030056],[-105.48496615679363,40.171523021054114],[-105.48486794279449,40.171716776087166],[-105.48458732878132,40.172140945164145],[-105.48448230475867,40.172153548173313],[-105.48438756273356,40.172125744176299],[-105.48432351471018,40.172054117171221],[-105.48427025467507,40.171864330149447],[-105.48403627257687,40.171496280116578],[-105.48383830252209,40.171419445120343],[-105.48311183135802,40.171442120174994],[-105.48295922531814,40.171402484180518]]},"properties":{"id":"216.1","name":"IRONCLADS"}},{"type":"Feature","geometry":{"type":"LineString","coordinates":[[-105.46876675254178,40.158841035498732],[-105.46878158656023,40.158966117514524],[-105.46885475360202,40.159172859537158],[-105.46894857563387,40.15925825054201],[-105.4690297546594,40.159315131543899],[-105.46911096668549,40.159376787546428],[-105.46924177371959,40.159410403541656],[-105.46930214873994,40.159464216544578],[-105.46934915775761,40.159521146548919],[-105.46939644878027,40.159618887558715],[-105.46942475879106,40.159654540561498],[-105.46946200180616,40.159708536566143],[-105.46967171186235,40.159775257560227],[-105.46981266890177,40.159833247558026],[-105.46996473294692,40.159918220558623],[-105.47021328001151,40.159980278549341],[-105.47031158304058,40.160033935549549],[-105.47038184006557,40.160107258554476],[-105.47046258109148,40.160168464556982],[-105.47050528810887,40.160231357562417],[-105.47072342318286,40.160429311573544],[-105.47090145423837,40.160550215577139],[-105.47118409734017,40.160855748598202],[-105.47154556745636,40.161130449609502],[-105.47163365049242,40.161261631620874],[-105.47176548353707,40.16138065362756],[-105.47196095059338,40.161475514626417],[-105.47215566963662,40.161462765610857],[-105.47231818665438,40.161300680577497],[-105.47233994763543,40.161102630549308],[-105.47244029163762,40.160929510518883],[-105.47256392864793,40.160779540489919],[-105.47275781667651,40.160647220458372],[-105.47293620270293,40.160526919429465],[-105.47315400774639,40.160472221406643],[-105.4732946767858,40.1605314334046],[-105.47331109180401,40.160650939419568],[-105.47334346383238,40.160824185440561],[-105.47339904786314,40.160973422456721],[-105.47348604690548,40.161158402475401],[-105.47358050694373,40.161295524487159],[-105.47369034398184,40.161402688493759],[-105.47378480502012,40.161539810505509],[-105.47394148007048,40.161658739510379],[-105.4740357751058,40.161771947518929],[-105.47412331815762,40.162034646548086],[-105.47419486319852,40.162237625570306],[-105.47422740322979,40.162434786594488],[-105.47418935923695,40.16256646961493],[-105.47415885424151,40.162662252629978],[-105.47415985325907,40.162805733649229],[-105.47416847727544,40.162925270664701],[-105.47413899128526,40.163062816685326],[-105.47424332032234,40.163171313692501],[-105.47429366734153,40.163234444697402],[-105.4743641453662,40.163304790701901],[-105.47437083337577,40.163371433710346],[-105.47437720538186,40.16340951771506],[-105.47439305538954,40.16344287771841],[-105.47440888639889,40.163490292723644],[-105.47441228840572,40.163540371730136],[-105.47442910141604,40.16359399973615],[-105.47442913342476,40.16366607474589],[-105.47443161942769,40.163685795748364],[-105.47444044743825,40.163756213757182],[-105.47444876144989,40.163837174767522],[-105.47450239546984,40.163900021772143],[-105.47454850648579,40.163944880774906],[-105.47458860550211,40.164003277779912],[-105.47464788452544,40.164084119786622],[-105.47472008855395,40.164182928794737],[-105.47479876758017,40.164250176798184],[-105.47488948260606,40.164292059797425],[-105.47491469461328,40.164303758797168],[-105.47507835265618,40.164348134791545],[-105.47521139769076,40.164381013786489],[-105.47525774570275,40.164392445784742],[-105.47537781473731,40.164450514784015],[-105.47547887576374,40.16447712878044],[-105.47556263378351,40.164481288775058],[-105.47565175480173,40.164462903766228],[-105.47573929482077,40.164453534758749],[-105.47582666184078,40.16445317575247],[-105.47590510485875,40.164452853746859],[-105.47597635287454,40.164448055741182],[-105.47603174788669,40.164443323736577],[-105.47609116790031,40.16444307973233],[-105.47617917691937,40.164433707724804],[-105.47627005893807,40.164415314715868],[-105.47636943496137,40.164419410709399],[-105.47644818498269,40.164446115707385],[-105.4765171330028,40.164481869707309],[-105.47659116202469,40.164522107707462],[-105.47668864605137,40.164557744705327],[-105.4768184230855,40.164593247700871],[-105.47695211512317,40.164651258699209],[-105.4770396441541,40.164740993705024],[-105.47703522516397,40.16483110671745],[-105.47702306417425,40.164939270732916],[-105.47709712920481,40.165051583742766],[-105.47722402124316,40.165127641743965],[-105.47735238428291,40.165212702746267],[-105.47745432531457,40.165280844748239],[-105.4774597513162,40.165284335748289],[-105.47752836634061,40.165356128753089],[-105.47756533835891,40.165437061761345],[-105.47759441037483,40.165513522769558],[-105.47761019638335,40.165554000773909],[-105.47762418839091,40.165589980777753],[-105.47763462940523,40.165689041790309],[-105.47761212641097,40.165779229804038],[-105.47755391540635,40.165851545817915],[-105.47749424140245,40.165932877833121],[-105.4774159583954,40.166023294850824],[-105.47735129739144,40.166113656867608],[-105.47731931639558,40.16620874888266],[-105.47730383540654,40.166329088899921],[-105.47734775342808,40.166424261909633]]},"properties":{"id":"217.1","name":"CAVE CREEK"}},{"type":"Feature","geometry":{"type":"LineString","coordinates":[[-105.46903761728626,40.17277681535495],[-105.46913734631151,40.172796231350468],[-105.46921979133661,40.172846891351426],[-105.46931714036694,40.17291298635341],[-105.46939601238827,40.172939425351316],[-105.46952156041702,40.172938916342353],[-105.46965559544834,40.172942967333356],[-105.46977480147564,40.172942483324825],[-105.46990579150636,40.172947718316223],[-105.47002267053355,40.172950397308291],[-105.47021434657965,40.172967638296953],[-105.4703660916166,40.172985040288545],[-105.4705328136581,40.173011391280205],[-105.47068883369482,40.1730185052701],[-105.4707986837207,40.173023825263023],[-105.47095065675551,40.173023207252164],[-105.47115719980833,40.173067414243391],[-105.47125775383789,40.173121061243485],[-105.47135406586212,40.17313868823895],[-105.47147291988941,40.173138204230462],[-105.47207542702782,40.17313818218765],[-105.47279649919653,40.173163800139825],[-105.47309836726636,40.17316770211891],[-105.47329205630915,40.17315330610321],[-105.47346672734152,40.173089526082222],[-105.47362162237069,40.173036096063989],[-105.47387631542422,40.172994962040384],[-105.47413060247671,40.172946351015746],[-105.47431018251395,40.172913000998484],[-105.47447001554636,40.172877298982336],[-105.47461996457622,40.172839114966543],[-105.47475671960026,40.172778370948642],[-105.47488916062188,40.172705301929398],[-105.47497161263684,40.172672258919121],[-105.47508870165547,40.172604117901585],[-105.47517599266583,40.172523934884637],[-105.47521056666237,40.172429193869434]]},"properties":{"id":"115.1B","name":"BUNCE SCHOOL SPUR"}},{"type":"Feature","geometry":{"type":"LineString","coordinates":[[-105.47067200341111,40.170701243959499],[-105.4707206194242,40.170717533958246],[-105.4708076024496,40.170762317958093],[-105.47088868247312,40.170802620957751],[-105.47092023348574,40.170847539961549],[-105.47092508648959,40.17087004396425],[-105.47073400847245,40.171091554007603],[-105.47062253045667,40.171173092026528],[-105.47052973144741,40.17127257404649],[-105.47044161643478,40.171335998061302],[-105.47040428043876,40.171439759077906],[-105.47049700747147,40.171533982084007],[-105.47060790050558,40.171605607085745],[-105.4707195225382,40.17166371508565],[-105.47085453957459,40.171708213082013],[-105.47096565360445,40.171743709078889],[-105.47111283064471,40.171797257075625],[-105.47123307467608,40.171828301071272],[-105.47135237170504,40.171841330064552],[-105.47145959672963,40.171840893056896],[-105.47157626276129,40.171880961053972],[-105.47168923279312,40.17193005305252],[-105.47172135480979,40.17200650206054],[-105.47173104682128,40.172083134070142],[-105.47175861183518,40.17214599807668],[-105.47179883785365,40.172222414084068],[-105.47187388988121,40.172307699090211],[-105.4719415039043,40.172370489093865],[-105.4720353559302,40.172406145092026],[-105.47213795295693,40.17243275508828],[-105.47220264097341,40.172446005085447],[-105.47227103199182,40.172468250083604],[-105.4723365800112,40.172504020083778],[-105.47247548305272,40.172583458084588],[-105.47262480208983,40.172606724077085],[-105.47287369415147,40.172643727064347],[-105.47315948621585,40.17263319004266],[-105.47329628924889,40.172646866034732],[-105.47351401230051,40.172660301021097],[-105.47365694133329,40.172659716010848],[-105.47384935037395,40.172630368993232],[-105.47427204447315,40.172647647965512],[-105.47442113050617,40.172637396953562],[-105.47457011953745,40.172613091939695],[-105.4748244725871,40.172540512911823],[-105.47498567661714,40.172482641892557],[-105.47510360664242,40.172467832882198],[-105.47521056666237,40.172429193869434]]},"properties":{"id":"115.1A","name":"BUNCE SCHOOL SPUR"}},{"type":"Feature","geometry":{"type":"LineString","coordinates":[[-105.48453517564589,40.146259707685417],[-105.48412630457594,40.146458228741125],[-105.48386521953024,40.146576443775622],[-105.48378977552167,40.146648925790743],[-105.4837088105118,40.146721249806191],[-105.48362743150078,40.146784745820526],[-105.48358079149553,40.146829898829942],[-105.48339936446912,40.146956789859885],[-105.48326767245148,40.147060948883244],[-105.48320305444182,40.147104103893646],[-105.48310935542612,40.147152244906771],[-105.48305572041808,40.1471879659154],[-105.48297392440584,40.147242364928552],[-105.48289193539036,40.147269734938064],[-105.48282672137972,40.147305893947546]]},"properties":{"id":"213.1","name":"BENNETT ACCESS"}},{"type":"Feature","geometry":{"type":"LineString","coordinates":[[-105.50505447612538,40.136043926853553],[-105.50509954213747,40.13605859585234],[-105.50525690118803,40.1361781868573],[-105.50545014225955,40.136403662873896],[-105.50547475428172,40.136540950890641],[-105.50546027029108,40.136645794905739],[-105.50550475630885,40.136708667911094],[-105.50573052438227,40.136887871919193],[-105.50600562746179,40.13702388591792],[-105.50610192351128,40.13725077494167],[-105.50611835752646,40.137345663953226],[-105.5060659875447,40.137596627990753],[-105.50610857856368,40.137673022998015],[-105.50621055459037,40.13770023599438],[-105.50640110463654,40.137720304983588],[-105.5067644957231,40.137746825961351],[-105.50688070575738,40.137809563961525],[-105.50696531178581,40.13788451296562],[-105.50714726085232,40.138089673980303],[-105.50733204790453,40.138171301978197],[-105.50738923692181,40.138205647978701],[-105.50747239394738,40.138259340980078],[-105.50760300698052,40.138285526974272],[-105.50811977211092,40.138383355950786],[-105.50842527918398,40.138407692932368],[-105.5086135452401,40.138514709933403],[-105.50899471234857,40.13868881092975],[-105.50914581538935,40.138739320925815],[-105.50950525047166,40.138738190900163],[-105.50977951154476,40.138822213891984],[-105.5100537456193,40.138918398885458],[-105.51024477767513,40.139017923885298],[-105.51044225373228,40.139115797884443],[-105.51060919378402,40.139227319887581],[-105.5108176028382,40.139280097879904],[-105.51099632488388,40.139318860872379],[-105.51121395494688,40.139427095871511],[-105.51144171500903,40.139508617866333],[-105.51164859806848,40.139608159865034],[-105.51178542810672,40.13966458586291],[-105.5120538031705,40.139683039846332],[-105.51242544825561,40.139681395819707],[-105.51261713529377,40.139633067799615],[-105.51272825831292,40.139580230784603],[-105.5128206923255,40.13950855576838],[-105.51313017739349,40.139483399743035],[-105.51364386150367,40.139419316697946],[-105.51429328163803,40.139297598635459],[-105.5146831227198,40.139234061599197],[-105.51487441075162,40.139133295572059],[-105.51506609478973,40.139084963551937],[-105.51531269982904,40.138941245515092],[-105.51541174584942,40.138921794505492],[-105.51558523089085,40.138935257494921],[-105.51583342495398,40.138986407484182],[-105.51611943403721,40.139132528483522],[-105.51626855707769,40.139184209479886],[-105.51640491311004,40.139193061471417],[-105.51658472815461,40.139220819462409],[-105.51675792619143,40.13919626144682],[-105.51690057622636,40.139214634439142],[-105.51706198926907,40.13926148443398],[-105.51717961829425,40.139246634423607],[-105.51737129133414,40.139212532405431],[-105.51755693137376,40.139187918388899],[-105.51768099840389,40.139201598381987],[-105.51780483943224,40.139201045373099],[-105.51799688147625,40.139200186359346],[-105.51814567251314,40.139223305351884],[-105.51827632155052,40.139284526350863],[-105.5184377365932,40.139331374345687],[-105.51864228564288,40.139354243334211],[-105.51880984868588,40.139391512327343],[-105.51895889272683,40.139447875324336],[-105.5191141227687,40.139499524320264],[-105.51930649181787,40.13954145731222],[-105.51946754485476,40.139540735300706],[-105.51976502792516,40.139558410281943],[-105.5200686599958,40.139566507261499],[-105.52027310104376,40.139575139248144],[-105.52034170106576,40.139627086250236],[-105.52041022008837,40.139683808253018],[-105.52052231712319,40.139759435255229],[-105.52070901017969,40.139872656257189],[-105.52092043724129,40.139981081256771],[-105.52120739632285,40.140111419253934],[-105.52171406246882,40.140358070251139],[-105.52189576453428,40.140554920264726],[-105.52208209859049,40.140666699266468],[-105.52220770962673,40.140728209265845],[-105.52235072366003,40.140732249256253],[-105.52258063371556,40.14075499624299],[-105.52271768275152,40.140792578238262],[-105.5227354077611,40.140838267243197],[-105.52271131776074,40.140881080250665],[-105.52265076576752,40.141052444277989],[-105.52254110377164,40.141295386318447],[-105.52252379478715,40.141457184341476],[-105.52252470580173,40.141576016357398],[-105.52241384078664,40.141662107376852],[-105.52224110375913,40.141762711402599],[-105.52218676376908,40.141948372431486],[-105.52207073976773,40.142158096467881],[-105.52197874876217,40.14228680649174],[-105.52177520872871,40.142397099521055],[-105.52154688969141,40.142521738554031],[-105.52150466369892,40.142664549576224],[-105.52146890471366,40.142854901604366],[-105.52147053973982,40.143068780633023],[-105.52146556175646,40.143216198653185],[-105.52146643477039,40.14333034466852],[-105.52145464477803,40.143415898680864],[-105.52139269876442,40.143420952685943],[-105.52121894671893,40.143374254691992],[-105.52114460070133,40.143369813696687],[-105.52102649266855,40.143322774698717],[-105.52085244262014,40.143252292701646],[-105.52072229958915,40.143243327709683],[-105.52069661359475,40.143338673724301],[-105.52070809061551,40.143488810743655],[-105.5207500836394,40.143607187756629],[-105.52089653270725,40.14389113978438],[-105.52101072274773,40.144009190792161],[-105.52138827786037,40.144224800794348],[-105.52150252990177,40.144350689803176],[-105.5217411619652,40.144422502795912],[-105.52204488103872,40.144454468778626],[-105.52223053407839,40.144429846762122],[-105.52239090710415,40.144338757738453],[-105.52259442413526,40.144209543706651],[-105.52274198715246,40.14407094267753],[-105.52346603332127,40.144093438629099],[-105.52371235337445,40.144065386607821],[-105.52418114346764,40.143946051558501],[-105.52442697651306,40.143854843528764],[-105.52476842859235,40.14386275650557],[-105.52500323965384,40.143925929497392],[-105.52565884785115,40.144314689503119],[-105.52573488287902,40.144401015509288],[-105.52573115188592,40.144465270518189],[-105.52557803587608,40.144674806557262],[-105.52555766388147,40.14475823656992],[-105.52572358492927,40.14483910956902],[-105.52578945194446,40.144839891564416],[-105.52615084901154,40.144708513521095],[-105.52641605806333,40.144633159492138],[-105.52672972912956,40.144585334463471],[-105.52701912018682,40.144509869432746],[-105.52711523420102,40.144444563417103],[-105.52717435619552,40.144286627391686],[-105.52725909518895,40.144071094356654],[-105.52741352121051,40.143955970330218],[-105.52765545226013,40.143907208306466],[-105.52790393031816,40.143915625289956],[-105.52802865535308,40.143967492288091],[-105.52836872443977,40.14403927827356]]},"properties":{"id":"202.1","name":"UPPER BASIN"}}]}